CCSDS_OMM_VERS = 2.0
CREATION_DATE  = 
ORIGINATOR     = 

OBJECT_NAME    = SL-14 R/B
OBJECT_ID      = 1986-046B
CENTER_NAME    = EARTH
REF_FRAME      = TEME
TIME_SYSTEM    = UTC
MEAN_ELEMENT_THEORY = SGP/SGP4

EPOCH          = 2026-03-12T23:21:08.184096
MEAN_MOTION    = 14.85593958
ECCENTRICITY   = .0022193
INCLINATION    = 82.4783
RA_OF_ASC_NODE = 77.0784
ARG_OF_PERICENTER = 213.9865
MEAN_ANOMALY   = 145.9931

EPHEMERIS_TYPE = 0
CLASSIFICATION_TYPE = U
NORAD_CAT_ID   = 16792
ELEMENT_SET_NO = 999
REV_AT_EPOCH   = 12689
BSTAR          = .61966E-4
MEAN_MOTION_DOT = .562E-5
MEAN_MOTION_DDOT = 0

CCSDS_OMM_VERS = 2.0
CREATION_DATE  = 
ORIGINATOR     = 

OBJECT_NAME    = SL-14 R/B
OBJECT_ID      = 1986-055B
CENTER_NAME    = EARTH
REF_FRAME      = TEME
TIME_SYSTEM    = UTC
MEAN_ELEMENT_THEORY = SGP/SGP4

EPOCH          = 2026-03-12T15:24:10.548864
MEAN_MOTION    = 14.85645631
ECCENTRICITY   = .0017941
INCLINATION    = 82.5196
RA_OF_ASC_NODE = 123.8994
ARG_OF_PERICENTER = 326.4064
MEAN_ANOMALY   = 148.8115

EPHEMERIS_TYPE = 0
CLASSIFICATION_TYPE = U
NORAD_CAT_ID   = 16882
ELEMENT_SET_NO = 999
REV_AT_EPOCH   = 11980
BSTAR          = .55473E-4
MEAN_MOTION_DOT = .506E-5
MEAN_MOTION_DDOT = 0

CCSDS_OMM_VERS = 2.0
CREATION_DATE  = 
ORIGINATOR     = 

OBJECT_NAME    = AJISAI (EGS)
OBJECT_ID      = 1986-061A
CENTER_NAME    = EARTH
REF_FRAME      = TEME
TIME_SYSTEM    = UTC
MEAN_ELEMENT_THEORY = SGP/SGP4

EPOCH          = 2026-03-12T23:58:10.716960
MEAN_MOTION    = 12.44515641
ECCENTRICITY   = .0011282
INCLINATION    = 50.0081
RA_OF_ASC_NODE = 83.1718
ARG_OF_PERICENTER = 295.5553
MEAN_ANOMALY   = 91.8994

EPHEMERIS_TYPE = 0
CLASSIFICATION_TYPE = U
NORAD_CAT_ID   = 16908
ELEMENT_SET_NO = 999
REV_AT_EPOCH   = 46841
BSTAR          = -.14041E-4
MEAN_MOTION_DOT = -.99E-6
MEAN_MOTION_DDOT = 0

CCSDS_OMM_VERS = 2.0
CREATION_DATE  = 
ORIGINATOR     = 

OBJECT_NAME    = SL-14 R/B
OBJECT_ID      = 1987-024B
CENTER_NAME    = EARTH
REF_FRAME      = TEME
TIME_SYSTEM    = UTC
MEAN_ELEMENT_THEORY = SGP/SGP4

EPOCH          = 2026-03-13T00:07:30.491328
MEAN_MOTION    = 14.86135556
ECCENTRICITY   = .0016758
INCLINATION    = 82.5244
RA_OF_ASC_NODE = 89.6466
ARG_OF_PERICENTER = 247.9637
MEAN_ANOMALY   = 111.9799

EPHEMERIS_TYPE = 0
CLASSIFICATION_TYPE = U
NORAD_CAT_ID   = 17567
ELEMENT_SET_NO = 999
REV_AT_EPOCH   = 8862
BSTAR          = .58814E-4
MEAN_MOTION_DOT = .541E-5
MEAN_MOTION_DDOT = 0

CCSDS_OMM_VERS = 2.0
CREATION_DATE  = 
ORIGINATOR     = 

OBJECT_NAME    = COSMOS 1833
OBJECT_ID      = 1987-027A
CENTER_NAME    = EARTH
REF_FRAME      = TEME
TIME_SYSTEM    = UTC
MEAN_ELEMENT_THEORY = SGP/SGP4

EPOCH          = 2026-03-12T18:18:13.173408
MEAN_MOTION    = 14.13054014
ECCENTRICITY   = .002412
INCLINATION    = 70.9217
RA_OF_ASC_NODE = 319.5609
ARG_OF_PERICENTER = 210.2000
MEAN_ANOMALY   = 149.7732

EPHEMERIS_TYPE = 0
CLASSIFICATION_TYPE = U
NORAD_CAT_ID   = 17589
ELEMENT_SET_NO = 999
REV_AT_EPOCH   = 1075
BSTAR          = -.7966E-4
MEAN_MOTION_DOT = -.197E-5
MEAN_MOTION_DDOT = 0

CCSDS_OMM_VERS = 2.0
CREATION_DATE  = 
ORIGINATOR     = 

OBJECT_NAME    = SL-16 R/B
OBJECT_ID      = 1987-027B
CENTER_NAME    = EARTH
REF_FRAME      = TEME
TIME_SYSTEM    = UTC
MEAN_ELEMENT_THEORY = SGP/SGP4

EPOCH          = 2026-03-12T22:32:24.497088
MEAN_MOTION    = 14.17166601
ECCENTRICITY   = .0003229
INCLINATION    = 70.9996
RA_OF_ASC_NODE = 269.6471
ARG_OF_PERICENTER = 135.5963
MEAN_ANOMALY   = 224.5420

EPHEMERIS_TYPE = 0
CLASSIFICATION_TYPE = U
NORAD_CAT_ID   = 17590
ELEMENT_SET_NO = 999
REV_AT_EPOCH   = 1580
BSTAR          = .47083E-4
MEAN_MOTION_DOT = .47E-6
MEAN_MOTION_DDOT = 0

CCSDS_OMM_VERS = 2.0
CREATION_DATE  = 
ORIGINATOR     = 

OBJECT_NAME    = SL-14 R/B
OBJECT_ID      = 1987-038B
CENTER_NAME    = EARTH
REF_FRAME      = TEME
TIME_SYSTEM    = UTC
MEAN_ELEMENT_THEORY = SGP/SGP4

EPOCH          = 2026-03-12T15:57:42.013440
MEAN_MOTION    = 14.85372207
ECCENTRICITY   = .0019915
INCLINATION    = 82.4995
RA_OF_ASC_NODE = 294.0046
ARG_OF_PERICENTER = 150.9335
MEAN_ANOMALY   = 209.2994

EPHEMERIS_TYPE = 0
CLASSIFICATION_TYPE = U
NORAD_CAT_ID   = 17912
ELEMENT_SET_NO = 999
REV_AT_EPOCH   = 7967
BSTAR          = .54806E-4
MEAN_MOTION_DOT = .497E-5
MEAN_MOTION_DDOT = 0

CCSDS_OMM_VERS = 2.0
CREATION_DATE  = 
ORIGINATOR     = 

OBJECT_NAME    = COSMOS 1844
OBJECT_ID      = 1987-041A
CENTER_NAME    = EARTH
REF_FRAME      = TEME
TIME_SYSTEM    = UTC
MEAN_ELEMENT_THEORY = SGP/SGP4

EPOCH          = 2026-03-12T20:45:59.937120
MEAN_MOTION    = 14.14551632
ECCENTRICITY   = .0030188
INCLINATION    = 70.9001
RA_OF_ASC_NODE = 27.4768
ARG_OF_PERICENTER = 13.1537
MEAN_ANOMALY   = 347.0364

EPHEMERIS_TYPE = 0
CLASSIFICATION_TYPE = U
NORAD_CAT_ID   = 17973
ELEMENT_SET_NO = 999
REV_AT_EPOCH   = 403
BSTAR          = -.38561E-4
MEAN_MOTION_DOT = -.123E-5
MEAN_MOTION_DDOT = 0

CCSDS_OMM_VERS = 2.0
CREATION_DATE  = 
ORIGINATOR     = 

OBJECT_NAME    = SL-14 R/B
OBJECT_ID      = 1987-055B
CENTER_NAME    = EARTH
REF_FRAME      = TEME
TIME_SYSTEM    = UTC
MEAN_ELEMENT_THEORY = SGP/SGP4

EPOCH          = 2026-03-12T21:51:39.225024
MEAN_MOTION    = 14.85633643
ECCENTRICITY   = .0020882
INCLINATION    = 82.5030
RA_OF_ASC_NODE = 345.9965
ARG_OF_PERICENTER = 7.3494
MEAN_ANOMALY   = 352.8024

EPHEMERIS_TYPE = 0
CLASSIFICATION_TYPE = U
NORAD_CAT_ID   = 18153
ELEMENT_SET_NO = 999
REV_AT_EPOCH   = 7041
BSTAR          = .67502E-4
MEAN_MOTION_DOT = .611E-5
MEAN_MOTION_DDOT = 0

CCSDS_OMM_VERS = 2.0
CREATION_DATE  = 
ORIGINATOR     = 

OBJECT_NAME    = COSMOS 1867
OBJECT_ID      = 1987-060A
CENTER_NAME    = EARTH
REF_FRAME      = TEME
TIME_SYSTEM    = UTC
MEAN_ELEMENT_THEORY = SGP/SGP4

EPOCH          = 2026-03-12T17:23:39.560352
MEAN_MOTION    = 14.31503615
ECCENTRICITY   = .0014533
INCLINATION    = 65.0108
RA_OF_ASC_NODE = 298.2061
ARG_OF_PERICENTER = 278.8556
MEAN_ANOMALY   = 81.0883

EPHEMERIS_TYPE = 0
CLASSIFICATION_TYPE = U
NORAD_CAT_ID   = 18187
ELEMENT_SET_NO = 999
REV_AT_EPOCH   = 2037
BSTAR          = .27854E-4
MEAN_MOTION_DOT = -.26E-6
MEAN_MOTION_DDOT = 0

CCSDS_OMM_VERS = 2.0
CREATION_DATE  = 
ORIGINATOR     = 

OBJECT_NAME    = SL-14 R/B
OBJECT_ID      = 1988-001B
CENTER_NAME    = EARTH
REF_FRAME      = TEME
TIME_SYSTEM    = UTC
MEAN_ELEMENT_THEORY = SGP/SGP4

EPOCH          = 2026-03-12T18:31:14.408256
MEAN_MOTION    = 14.85532281
ECCENTRICITY   = .0017017
INCLINATION    = 82.5157
RA_OF_ASC_NODE = 192.4619
ARG_OF_PERICENTER = 224.8310
MEAN_ANOMALY   = 135.1533

EPHEMERIS_TYPE = 0
CLASSIFICATION_TYPE = U
NORAD_CAT_ID   = 18749
ELEMENT_SET_NO = 999
REV_AT_EPOCH   = 4248
BSTAR          = .78105E-4
MEAN_MOTION_DOT = .7E-5
MEAN_MOTION_DDOT = 0

CCSDS_OMM_VERS = 2.0
CREATION_DATE  = 
ORIGINATOR     = 

OBJECT_NAME    = COSMOS 1933
OBJECT_ID      = 1988-020A
CENTER_NAME    = EARTH
REF_FRAME      = TEME
TIME_SYSTEM    = UTC
MEAN_ELEMENT_THEORY = SGP/SGP4

EPOCH          = 2026-03-12T13:24:30.053088
MEAN_MOTION    = 15.18014469
ECCENTRICITY   = .0004156
INCLINATION    = 82.5104
RA_OF_ASC_NODE = 248.0725
ARG_OF_PERICENTER = 172.1951
MEAN_ANOMALY   = 187.9349

EPHEMERIS_TYPE = 0
CLASSIFICATION_TYPE = U
NORAD_CAT_ID   = 18958
ELEMENT_SET_NO = 999
REV_AT_EPOCH   = 5066
BSTAR          = .27542E-3
MEAN_MOTION_DOT = .5631E-4
MEAN_MOTION_DDOT = 0

